[
    {
        "CCSDS_OMM_VERS": "3.0",
        "COMMENT": "GENERATED VIA SPACE-TRACK.ORG API",
        "CREATION_DATE": "2025-05-03T02:26:48",
        "ORIGINATOR": "18 SPCS",
        "OBJECT_NAME": "BEIDOU IGSO-6",
        "OBJECT_ID": "2016-021A",
        "CENTER_NAME": "EARTH",
        "REF_FRAME": "TEME",
        "TIME_SYSTEM": "UTC",
        "MEAN_ELEMENT_THEORY": "SGP4",
        "EPOCH": "2025-05-02T18:13:54.687072",
        "MEAN_MOTION": "1.00294807",
        "ECCENTRICITY": "0.00537000",
        "INCLINATION": "59.6491",
        "RA_OF_ASC_NODE": "42.1349",
        "ARG_OF_PERICENTER": "230.2055",
        "MEAN_ANOMALY": "314.2988",
        "EPHEMERIS_TYPE": "0",
        "CLASSIFICATION_TYPE": "U",
        "NORAD_CAT_ID": "41434",
        "ELEMENT_SET_NO": "999",
        "REV_AT_EPOCH": "3336",
        "BSTAR": "0.00000000000000",
        "MEAN_MOTION_DOT": "-0.00000165",
        "MEAN_MOTION_DDOT": "0.0000000000000",
        "SEMIMAJOR_AXIS": "42158.279",
        "PERIOD": "1435.767",
        "APOAPSIS": "36006.534",
        "PERIAPSIS": "35553.754",
        "OBJECT_TYPE": "PAYLOAD",
        "RCS_SIZE": "LARGE",
        "COUNTRY_CODE": "PRC",
        "LAUNCH_DATE": "2016-03-29",
        "SITE": "XSC",
        "DECAY_DATE": null,
        "FILE": "4717276",
        "GP_ID": "286715062",
        "TLE_LINE0": "0 BEIDOU IGSO-6",
        "TLE_LINE1": "1 41434U 16021A   25122.75966073 -.00000165  00000-0  00000-0 0  9994",
        "TLE_LINE2": "2 41434  59.6491  42.1349 0053700 230.2055 314.2988  1.00294807 33368"
    }
]